{"spkid": "50180207", "covariance": {"labels": ["e", "q", "tp", "node", "peri", "i"], "data": [["4.143671366863552E-15", "-4.744829095537142E-15", "1.065742837086424E-12", "6.456214698028693E-13", "-1.426330375303217E-13", "-1.06920277497774E-13"], ["-4.744829095537142E-15", "5.433695230247372E-15", "-1.21695364847651E-12", "-7.278286912886715E-13", "1.527909758633625E-13", "1.208052926681851E-13"], ["1.065742837086424E-12", "-1.21695364847651E-12", "3.096701062830047E-10", "3.791377399246563E-10", "-2.308134452444364E-10", "-6.570895358050113E-11"], ["6.456214698028693E-13", "-7.278286912886715E-13", "3.791377399246563E-10", "4.659832698484898E-9", "-4.398467833714223E-9", "-6.8211512967589E-10"], ["-1.426330375303217E-13", "1.527909758633625E-13", "-2.308134452444364E-10", "-4.398467833714223E-9", "4.214036001182019E-9", "6.373370549695617E-10"], ["-1.06920277497774E-13", "1.208052926681851E-13", "-6.570895358050113E-11", "-6.8211512967589E-10", "6.373370549695617E-10", "1.113109645666923E-10"]], "elements": [{"label": "e", "sigma": 6.43713551734275e-08, "name": "e", "value": ".3337809876452985", "title": "eccentricity", "units": null}, {"sigma": 7.37136027490678e-08, "name": "q", "units": "au", "title": "perihelion distance", "value": ".7945794160999929", "label": "q"}, {"label": "tp", "units": "TDB", "value": "2456046.753641184982", "title": "time of perihelion passage", "name": "tp", "sigma": 1.75974460159139e-05}, {"label": "node", "sigma": 6.82629672552029e-05, "name": "om", "title": "longitude of the ascending node", "value": "64.54597102012544", "units": "deg"}, {"units": "deg", "title": "argument of perihelion", "value": "241.6620090348085", "sigma": 6.4915606761256e-05, "name": "w", "label": "peri"}, {"label": "i", "name": "i", "sigma": 1.05504011566714e-05, "units": "deg", "title": "inclination", "value": "3.554027219277325"}], "epoch": "2455912.5"}, "elements": [{"sigma": "6.3678E-8", "name": "e", "title": "eccentricity", "value": ".3339288601121491", "units": null, "label": "e"}, {"label": "a", "sigma": "2.6307E-9", "name": "a", "value": "1.192664644763485", "title": "semi-major axis", "units": "au"}, {"label": "q", "sigma": "7.4225E-8", "name": "q", "units": "au", "title": "perihelion distance", "value": ".7943994994415533"}, {"units": "deg", "title": "inclination; angle with respect to x-y ecliptic plane", "value": "3.557431883199294", "name": "i", "sigma": "1.0544E-5", "label": "i"}, {"sigma": "6.8137E-5", "name": "om", "value": "64.37923348030628", "title": "longitude of the ascending node", "units": "deg", "label": "node"}, {"name": "w", "sigma": "6.4848E-5", "units": "deg", "value": "241.7667057511486", "title": "argument of perihelion", "label": "peri"}, {"label": "M", "sigma": "2.9338E-5", "name": "ma", "units": "deg", "title": "mean anomaly", "value": "300.28348704097"}, {"label": "tp", "sigma": "3.9028E-5", "name": "tp", "value": "2461279.416512387271", "title": "time of perihelion passage", "units": "TDB"}, {"sigma": "1.5741E-6", "name": "per", "units": "d", "value": "475.7468755570014", "title": "sidereal orbital period", "label": "period"}, {"label": "n", "title": "mean motion", "value": ".7567049170391592", "units": "deg/d", "sigma": "2.5037E-9", "name": "n"}, {"units": "au", "value": "1.590929790085417", "title": "aphelion distance", "sigma": "3.5092E-9", "name": "ad", "label": "Q"}], "epoch": "2461200.5"}